#aV2019  6 14  0  0  0.00000000     288 DD+AD WGS84 FIT  NGA
## 2057 432000.00000000   300.00000000 58648 0.0000000000000
+   31     1  2  3  5  6  7  8  9 10 11 12 13 14 15 16 17 18
+         19 20 21 22 23 24 25 26 27 28 29 30 31 32  0  0  0
+          0  0  0  0  0  0  0  0  0  0  0  0  0  0  0  0  0
+          0  0  0  0  0  0  0  0  0  0  0  0  0  0  0  0  0
+          0  0  0  0  0  0  0  0  0  0  0  0  0  0  0  0  0
++         2  2  2  2  2  2  2  2  2  2  2  2  2  2  2  2  2
++         2  2  2  2  2  2  2  2  2  2  2  2  2  2  0  0  0
++         0  0  0  0  0  0  0  0  0  0  0  0  0  0  0  0  0
++         0  0  0  0  0  0  0  0  0  0  0  0  0  0  0  0  0
++         0  0  0  0  0  0  0  0  0  0  0  0  0  0  0  0  0
%c cc cc ccc ccc cccc cccc cccc cccc ccccc ccccc ccccc ccccc
%c cc cc ccc ccc cccc cccc cccc cccc ccccc ccccc ccccc ccccc
%f  0.0000000  0.000000000  0.00000000000  0.000000000000000
%f  0.0000000  0.000000000  0.00000000000  0.000000000000000
%i    0    0    0    0      0      0      0      0         0
%i    0    0    0    0      0      0      0      0         0
/*      NGA, ST. LOUIS,MO.                                  
/*   EPHEMERIS COMPUTED FROM 2 DAYS OF DATA                 
/*   EPOCHA v5 SMOOTHER                                     
/*   G1762 IERS2010 SATAF SATAPC                            
*  2019  6 14 21 35  0.00000000
P  1  21909.833819  14396.863046  -5422.691276    -41.232611                    
V  1  -6781.742552  -1029.338390 -30904.775844     -0.096835                    
P  2  -3480.595321 -17067.477336  20699.300641   -237.411180                    
V  2  23518.441169   8260.377150  10947.442118     -0.089261                    
P  3  12712.635662  16920.171062  16063.108351    185.527573                    
V  3    -17.321710  20512.594352 -21449.887516     -0.013075                    
P  5  -2177.067198 -26324.112972   1201.392488      0.538435                    
V  5   3521.724768   1286.526459  31594.095254     -0.001622                    
P  6  11444.293337 -10724.762717  21481.535437    177.822632                    
V  6  24416.913661  11826.873743  -7083.681552     -0.106343                    
P  7  24854.918335   5733.886709  -7976.122992    -44.541622                    
V  7   8272.052055   6702.619847  29140.487642     -0.076356                    
P  8   7421.620397  13100.079089 -21842.421538   -147.446498                    
V  8 -22667.967699  16070.788908   2134.698372     -0.014128                    
P  9  22687.564051  -5194.326399  12766.729462    391.536704                    
V  9 -11729.880287  11575.763499  25467.033145     -0.076942                    
P 10 -11883.536420  14239.921038 -18871.290687     15.982220                    
V 10  -3685.895659 -23925.022611 -15873.897160     -0.118803                    
P 11  20025.631024  10731.870690 -14080.436985   -584.429491                    
V 11 -17221.648547   3507.050864 -22944.787778      0.086811                    
P 12 -10301.975591 -19409.106825  14823.522675    233.125092                    
V 12   1123.158079 -19124.358491 -23747.797317     -0.035152                    
P 13   2959.300431 -17238.852520 -20081.379229    -59.050026                    
V 13  22790.254756 -10930.465913  12859.290250      0.017833                    
P 14 -16245.341678  18200.923964  10596.669400    -76.062453                    
V 14 -12526.379248   4438.290986 -27857.892294      0.017053                    
P 15 -10082.671071 -12497.964887 -21415.423217   -307.033433                    
V 15  20482.675439 -17161.697432    770.173340      0.022956                    
P 16   -283.361861  26309.662073    516.707047    -48.114786                    
V 16  -2491.056246   -886.612928  32520.002495     -0.030667                    
P 17  21327.283073 -15556.685700   2863.711757     71.788248                    
V 17   3777.170372    127.667616 -32049.766669      0.064073                    
P 18  15673.807044  16904.131592 -13799.822599     61.952772                    
V 18 -16239.081010  -4313.726108 -24491.700131      0.031254                    
P 19  18184.641222 -17061.922384   8938.031910   -306.547296                    
V 19  11203.401985  -4020.186178 -29399.879213      0.047099                    
P 20 -15293.593376   4484.699915 -21344.820619    525.383216                    
V 20  -5870.163824 -26345.589107  -1491.485873      0.002429                    
P 21 -23406.154366   -310.419649 -11602.419329   -173.152735                    
V 21 -13818.852190  -8706.309325  26488.687472      0.072257                    
P 22  11155.250642  22114.984296   9935.166668   -717.036517                    
V 22  -1276.036265  12694.425688 -27383.743268     -0.057281                    
P 23  16484.190227   6217.459409  20321.354586   -181.761616                    
V 23 -19636.760526  15524.174569  10969.672619      0.017101                    
P 24 -20522.064894 -14966.842334  -8479.393570    -67.466334                    
V 24  10827.527199   1207.657490 -28538.909419     -0.005083                    
P 25 -14907.910328  -6351.406406  20880.385979   -765.703528                    
V 25  -1669.019680 -26879.594217  -9028.987262     -0.032396                    
P 26  -5250.448217  23456.512297  11079.610101    227.027658                    
V 26  -4423.864960 -13765.721279  27170.104097      0.094488                    
P 27  -5021.158780  18587.906931 -18269.506042   -157.996341                    
V 27 -19638.224441  12134.266854  18142.641252     -0.101014                    
P 28  12465.484774 -13480.775000 -18626.194859    767.447994                    
V 28   1179.832130  24845.774773 -16565.650634     -0.001751                    
P 29 -21209.903808    536.460070  15949.162849    176.362012                    
V 29  16573.141690 -11742.710650  22373.090220     -0.095601                    
P 30  20533.034511  -3040.090710 -16656.378305   -123.956377                    
V 30  17862.350596  11559.471282  19688.831445     -0.072923                    
P 31 -10554.833024  11546.722033  21507.666212     31.080719                    
V 31 -24276.770035 -12413.483271  -4813.185490     -0.026572                    
P 32 -20029.592464  17056.500283   3200.743828    -43.512340                    
V 32  -5019.848030   -140.619045 -31387.442214      0.160770                    
EOF
